ES'HAIL 2               
1 43700U 18090A   23323.58086919  .00000151  00000+0  00000+0 0  9996
2 43700   0.0189 291.1018 0001362 332.0180  30.1731  1.00269159 18248
FOX-1CLIFF (AO-95)      
1 43770U 18099N   23323.43830253  .00004460  00000+0  34367-3 0  9998
2 43770  97.5801  21.0356 0014386   0.6250 359.4990 15.02052101270897
ITASAT                  
1 43786U 18099AE  23323.42905507  .00003506  00000+0  27679-3 0  9997
2 43786  97.5491  21.7585 0018416 342.1342  17.9233 15.01215311270927
JY1SAT (JO-97)          
1 43803U 18099AX  23323.41809619  .00004322  00000+0  32407-3 0  9995
2 43803  97.5530  22.1185 0009077 308.3708  51.6701 15.03151966270994
UWE-4                   
1 43880U 18111E   23323.24546683  .00005148  00000+0  36829-3 0  9994
2 43880  97.6217 226.1395 0018741  13.5602 346.6123 15.04735961267666
JAISAT-1                
1 44419U 19038F   23323.51636139  .00033250  00000+0  79539-3 0  9998
2 44419  97.6846 311.6203 0015382 101.5639 258.7335 15.41280318242367
DUCHIFAT-3              
1 44854U 19089C   23323.50231024  .00007711  00000+0  47385-3 0  9997
2 44854  36.9598 240.9043 0006895 179.1306 180.9452 15.09661154216358
TIANYAN 01              
1 44881U 19093C   23323.57731675  .00000912  00000+0  11866-3 0  9997
2 44881  97.8502  39.3250 0013305 293.3332  66.6481 14.82989287211820
RS-44 & BREEZE-KM R/B   
1 44909U 19096E   23323.49127884  .00000022  00000+0  40826-4 0  9994
2 44909  82.5223 244.7354 0217236 183.5709 176.3854 12.79723821182022
BY70-2                  
1 45857U 20042B   23323.58018915  .00024169  00000+0  19803-2 0  9991
2 45857  97.9156  44.7936 0008037 205.3670 154.7159 14.99242017182745
SALSAT                  
1 46495U 20068K   23323.39694311  .00004539  00000+0  28543-3 0  9998
2 46495  97.7898 273.3772 0013582 319.3779  40.6435 15.09678089172473
RADFXSAT-2 (AO-109)     
1 47311U 21002C   23322.99523908  .00035990  00000+0  59108-3 0  9999
2 47311  60.6746 178.6619 0021385  35.8463 324.4068 15.51947254158197
UVSQ-SAT                
1 47438U 21006AB  23323.12021800  .00015049  00000+0  50552-3 0  9990
2 47438  97.3632  18.4475 0007216 249.5674 110.4792 15.30914307156290
LEDSAT                  
1 49069U 21073D   23323.59079468  .00008139  00000+0  40460-3 0  9999
2 49069  97.4659  32.0367 0021022 303.0502  56.8712 15.17710437124441
XW-3 (CAS-9)            
1 50466U 21131B   23323.57097043  .00000481  00000+0  16942-3 0  9994
2 50466  98.5437  44.5859 0004825  48.0660 312.0939 14.39190946 99705
TEVEL-3                 
1 50988U 22002E   23323.55824575  .00025423  00000+0  77200-3 0  9994
2 50988  97.4139  30.1572 0006639  51.7144 308.4695 15.34045306102503
TEVEL-8                 
1 50989U 22002F   23323.38878671  .00022982  00000+0  70038-3 0  9991
2 50989  97.4157  30.0626 0006609  51.3280 308.8553 15.33952238102470
TEVEL-5                 
1 50998U 22002Q   23323.40112801  .00025453  00000+0  74177-3 0  9994
2 50998  97.4133  30.6093 0007406  44.7208 315.4631 15.35338951102529
TEVEL-6                 
1 50999U 22002R   23323.40013855  .00025472  00000+0  74264-3 0  9992
2 50999  97.4131  30.5985 0007378  44.7000 315.4836 15.35325147102525
TEVEL-1                 
1 51013U 22002AF  23323.31281366  .00023460  00000+0  71461-3 0  9995
2 51013  97.4131  29.8241 0006473  52.4152 307.7677 15.33963301102466
TEVEL-7                 
1 51062U 22002CG  23323.45222202  .00023153  00000+0  70456-3 0  9990
2 51062  97.4152  30.0964 0006565  50.8815 309.3010 15.33997500102488
TEVEL-4                 
1 51063U 22002CH  23323.53090768  .00025475  00000+0  77721-3 0  9991
2 51063  97.4150  30.1375 0006503  50.9875 309.1945 15.33896993102493
TEVEL-2                 
1 51069U 22002CP  23323.29832595  .00023702  00000+0  72001-3 0  9999
2 51069  97.4136  29.8640 0006607  52.3048 307.8793 15.34047438102462
GREENCUBE               
1 53106U 22080B   23320.11518823 -.00000003  00000+0  00000+0 0  9998
2 53106  70.1429 266.9072 0008228 154.5968 205.5097  6.42557250 31514
CYCLOPS (RS29S)         
1 53373U 22096D   23323.56705862  .00067576  00000+0  95396-3 0  9997
2 53373  97.3985 233.0824 0004809  78.3738 281.8056 15.56343458 71690
MONITOR-1 (RS32S)       
1 53374U 22096E   23323.55549813  .00059695  00000+0  92288-3 0  9999
2 53374  97.3929 232.5281 0004109  72.0426 288.1275 15.53889856 71662
KUZBASS-300 (RS34S)     
1 53375U 22096F   23323.59513562  .00036932  00000+0  71811-3 0  9994
2 53375  97.3997 231.5332 0003258  64.9823 295.1765 15.47510191 71599
UTMN (RS23S)            
1 53376U 22096G   23323.59833417  .00041415  00000+0  76332-3 0  9994
2 53376  97.3983 231.8153 0003782  69.5472 290.6185 15.49026696 71615
MIET-AIS (RS28S)        
1 53377U 22096H   23323.56407455  .00033571  00000+0  68700-3 0  9995
2 53377  97.4010 231.2990 0003137  67.6990 292.4591 15.46040867 71578
KAI-1 (RS26S)           
1 53378U 22096J   23323.55117017  .00026642  00000+0  60535-3 0  9996
2 53378  97.4033 230.6052 0002769  63.3658 296.7872 15.42991434 71525
ISOI (RS19S)            
1 53381U 22096M   23323.54523477  .00034692  00000+0  68163-3 0  9999
2 53381  97.4005 231.7470 0002321 117.5204 242.6282 15.47222948 71603
CUBESX-HSE-2 (RS21S)    
1 53383U 22096P   23323.55521905  .00040041  00000+0  73934-3 0  9993
2 53383  97.3993 232.0417 0002415 117.5088 242.6408 15.48986214 71625
SIREN (RS30S)           
1 53384U 22096Q   23323.55880194  .00026948  00000+0  56547-3 0  9993
2 53384  97.4013 231.3214 0002238 126.9492 233.1962 15.45350922 71575
GEOSCAN-EDELVEIS (RS20S)
1 53385U 22096R   23323.59529048  .00080574  00000+0  10091-2 0  9994
2 53385  97.3964 234.0654 0005026 112.3298 247.8492 15.59501796 71795
VIZARD (RS33S)          
1 53386U 22096S   23322.72539273  .00222787  00000+0  12198-2 0  9994
2 53386  97.3910 235.6978 0007603 108.6020 251.6074 15.79177597 71819
CAS-5A (FO-118)         
1 54684U 22167C   23323.50048316  .00012158  00000+0  58205-3 0  9994
2 54684  97.5818 100.7135 0012612 157.1176 203.0622 15.19038332 52214
STRATOSAT-TK 1 (RS52S)  
1 57167U 23091B   23323.54207417  .00007034  00000+0  48362-3 0  9993
2 57167  97.6456  12.9004 0018700 117.0125 243.3014 15.06094019 21795
UMKA 1 (RS40S)          
1 57172U 23091G   23323.58604295  .00002695  00000+0  19472-3 0  9996
2 57172  97.6447  12.8429 0019245 116.1783 244.1425 15.04781282 21794
CUBESX-HSE 3 (RS42S)    
1 57178U 23091N   23323.58451011  .00003704  00000+0  26372-3 0  9997
2 57178  97.6481  12.9160 0020097 111.7139 248.6229 15.05075359 21797
MONITOR-4 (RS57S)       
1 57182U 23091S   23323.46142592  .00003785  00000+0  27059-3 0  9992
2 57182  97.6478  12.7503 0020632 112.6848 247.6562 15.04901509 21770
MONITOR-2 (RS39S)       
1 57184U 23091U   23323.52802286  .00002348  00000+0  16813-3 0  9994
2 57184  97.6484  12.9758 0016646 106.3690 253.9368 15.05280742 21794
SVYATOBOR 1 (RS60S)     
1 57187U 23091X   23323.56053052  .00004717  00000+0  32813-3 0  9990
2 57187  97.6481  13.0872 0015784 105.0840 255.2134 15.05876640 21804
VIZARD-METEO (RS38S)    
1 57189U 23091Z   23323.51836562  .00004091  00000+0  28044-3 0  9998
2 57189  97.6472  13.1292 0015059 103.4328 256.8579 15.06510222 21803
NANOZOND 1 (RS49S)      
1 57190U 23091AA  23323.54205134  .00006603  00000+0  43987-3 0  9992
2 57190  97.6455  13.1993 0013668 108.5991 251.6722 15.07359412 21817
POLYTECH-UNIVERSE 3 (R*)
1 57191U 23091AB  23323.51491724  .00002521  00000+0  18072-3 0  9994
2 57191  97.6440  12.7804 0021857 122.9337 237.3995 15.05096828 21787
UTMN 2 (RS27S)          
1 57203U 23091AP  23323.53005903  .00004066  00000+0  28013-3 0  9992
2 57203  97.6478  13.1132 0015601 103.5089 256.7878 15.06315385 21801
ARCCUBE 1 (RS25S)       
1 57205U 23091AR  23323.53695967  .00007337  00000+0  48530-3 0  9999
2 57205  97.6436  13.1745 0014009 110.0818 250.1919 15.07579548 21810
KUZGTU 1 (RS47S)        
1 57217U 23091AV  23323.58238063  .00003698  00000+0  26350-3 0  9999
2 57217  97.6454  12.8725 0019904 112.9583 247.3746 15.05057169 21797
